[{"OBJECT_NAME":"TEVEL2-6","OBJECT_ID":"2025-052F","EPOCH":"2026-03-05T04:53:59.309088","MEAN_MOTION":15.30538315,"ECCENTRICITY":0.00045774,"INCLINATION":97.403,"RA_OF_ASC_NODE":320.6045,"ARG_OF_PERICENTER":104.8265,"MEAN_ANOMALY":255.3483,"EPHEMERIS_TYPE":0,"CLASSIFICATION_TYPE":"U","NORAD_CAT_ID":63215,"ELEMENT_SET_NO":999,"REV_AT_EPOCH":5418,"BSTAR":0.00078861351,"MEAN_MOTION_DOT":0.0002326,"MEAN_MOTION_DDOT":0},{"OBJECT_NAME":"TEVEL2-1","OBJECT_ID":"2025-052H","EPOCH":"2026-03-05T04:49:42.227616","MEAN_MOTION":15.30125086,"ECCENTRICITY":0.00045181,"INCLINATION":97.4004,"RA_OF_ASC_NODE":320.3383,"ARG_OF_PERICENTER":114.357,"MEAN_ANOMALY":245.8142,"EPHEMERIS_TYPE":0,"CLASSIFICATION_TYPE":"U","NORAD_CAT_ID":63217,"ELEMENT_SET_NO":999,"REV_AT_EPOCH":5417,"BSTAR":0.00078428111,"MEAN_MOTION_DOT":0.00022837,"MEAN_MOTION_DDOT":0},{"OBJECT_NAME":"TEVEL2-3","OBJECT_ID":"2025-052J","EPOCH":"2026-03-05T04:46:21.894528","MEAN_MOTION":15.30159564,"ECCENTRICITY":0.00045259,"INCLINATION":97.4007,"RA_OF_ASC_NODE":320.3473,"ARG_OF_PERICENTER":115.1213,"MEAN_ANOMALY":245.0498,"EPHEMERIS_TYPE":0,"CLASSIFICATION_TYPE":"U","NORAD_CAT_ID":63218,"ELEMENT_SET_NO":999,"REV_AT_EPOCH":5417,"BSTAR":0.00078614537,"MEAN_MOTION_DOT":0.00022917,"MEAN_MOTION_DDOT":0},{"OBJECT_NAME":"TEVEL2-2","OBJECT_ID":"2025-052K","EPOCH":"2026-03-05T04:50:39.780384","MEAN_MOTION":15.30127355,"ECCENTRICITY":0.00044598,"INCLINATION":97.4005,"RA_OF_ASC_NODE":320.3399,"ARG_OF_PERICENTER":115.0577,"MEAN_ANOMALY":245.1127,"EPHEMERIS_TYPE":0,"CLASSIFICATION_TYPE":"U","NORAD_CAT_ID":63219,"ELEMENT_SET_NO":999,"REV_AT_EPOCH":5417,"BSTAR":0.00079235405,"MEAN_MOTION_DOT":0.00023076,"MEAN_MOTION_DDOT":0},{"OBJECT_NAME":"TEVEL2-9","OBJECT_ID":"2025-052AD","EPOCH":"2026-03-05T06:01:01.484832","MEAN_MOTION":15.28432136,"ECCENTRICITY":0.00077594,"INCLINATION":97.4068,"RA_OF_ASC_NODE":319.966,"ARG_OF_PERICENTER":137.9443,"MEAN_ANOMALY":222.2394,"EPHEMERIS_TYPE":0,"CLASSIFICATION_TYPE":"U","NORAD_CAT_ID":63237,"ELEMENT_SET_NO":999,"REV_AT_EPOCH":5413,"BSTAR":0.0007767639,"MEAN_MOTION_DOT":0.00021481,"MEAN_MOTION_DDOT":0},{"OBJECT_NAME":"TEVEL2-7","OBJECT_ID":"2025-052AE","EPOCH":"2026-03-05T05:00:50.427936","MEAN_MOTION":15.28216758,"ECCENTRICITY":0.00077763,"INCLINATION":97.4068,"RA_OF_ASC_NODE":319.8781,"ARG_OF_PERICENTER":137.8904,"MEAN_ANOMALY":222.2934,"EPHEMERIS_TYPE":0,"CLASSIFICATION_TYPE":"U","NORAD_CAT_ID":63238,"ELEMENT_SET_NO":999,"REV_AT_EPOCH":5412,"BSTAR":0.00074352844,"MEAN_MOTION_DOT":0.00020421,"MEAN_MOTION_DDOT":0},{"OBJECT_NAME":"TEVEL2-8","OBJECT_ID":"2025-052AF","EPOCH":"2026-03-05T03:36:34.147872","MEAN_MOTION":15.28192035,"ECCENTRICITY":0.0007686,"INCLINATION":97.4064,"RA_OF_ASC_NODE":319.8004,"ARG_OF_PERICENTER":138.4653,"MEAN_ANOMALY":221.7172,"EPHEMERIS_TYPE":0,"CLASSIFICATION_TYPE":"U","NORAD_CAT_ID":63239,"ELEMENT_SET_NO":999,"REV_AT_EPOCH":5411,"BSTAR":0.0007389618,"MEAN_MOTION_DOT":0.00020279,"MEAN_MOTION_DDOT":0},{"OBJECT_NAME":"HADES-ICM","OBJECT_ID":"2025-052BN","EPOCH":"2026-03-05T04:42:50.611104","MEAN_MOTION":15.55423572,"ECCENTRICITY":0.00086093,"INCLINATION":97.3959,"RA_OF_ASC_NODE":324.4852,"ARG_OF_PERICENTER":119.894,"MEAN_ANOMALY":240.3171,"EPHEMERIS_TYPE":0,"CLASSIFICATION_TYPE":"U","NORAD_CAT_ID":63492,"ELEMENT_SET_NO":999,"REV_AT_EPOCH":5444,"BSTAR":0.0021691672,"MEAN_MOTION_DOT":0.00150361,"MEAN_MOTION_DDOT":0},{"OBJECT_NAME":"INNOSAT 16 (RS92S7)","OBJECT_ID":"2025-155C","EPOCH":"2026-03-05T06:03:12.305664","MEAN_MOTION":15.24095453,"ECCENTRICITY":0.0010443,"INCLINATION":97.4461,"RA_OF_ASC_NODE":31.8804,"ARG_OF_PERICENTER":180.6678,"MEAN_ANOMALY":179.4548,"EPHEMERIS_TYPE":0,"CLASSIFICATION_TYPE":"U","NORAD_CAT_ID":64878,"ELEMENT_SET_NO":999,"REV_AT_EPOCH":6483,"BSTAR":0.00040744525,"MEAN_MOTION_DOT":9.844e-5,"MEAN_MOTION_DDOT":0},{"OBJECT_NAME":"GEOSCAN 6 (RS92S6)","OBJECT_ID":"2025-155D","EPOCH":"2026-03-05T06:16:51.028608","MEAN_MOTION":15.27835862,"ECCENTRICITY":0.00080737,"INCLINATION":97.4459,"RA_OF_ASC_NODE":32.6483,"ARG_OF_PERICENTER":168.6913,"MEAN_ANOMALY":191.4509,"EPHEMERIS_TYPE":0,"CLASSIFICATION_TYPE":"U","NORAD_CAT_ID":64879,"ELEMENT_SET_NO":999,"REV_AT_EPOCH":6488,"BSTAR":0.00060755275,"MEAN_MOTION_DOT":0.00016473,"MEAN_MOTION_DDOT":0},{"OBJECT_NAME":"GEOSCAN 1 (RS92S1)","OBJECT_ID":"2025-155E","EPOCH":"2026-03-05T07:10:08.051520","MEAN_MOTION":15.28250855,"ECCENTRICITY":0.000803,"INCLINATION":97.4459,"RA_OF_ASC_NODE":32.7561,"ARG_OF_PERICENTER":168.4202,"MEAN_ANOMALY":191.7224,"EPHEMERIS_TYPE":0,"CLASSIFICATION_TYPE":"U","NORAD_CAT_ID":64880,"ELEMENT_SET_NO":999,"REV_AT_EPOCH":6489,"BSTAR":0.00060942081,"MEAN_MOTION_DOT":0.00016734,"MEAN_MOTION_DDOT":0},{"OBJECT_NAME":"239ALFEROV (RS61S)","OBJECT_ID":"2025-155F","EPOCH":"2026-03-05T06:19:08.998176","MEAN_MOTION":15.29729287,"ECCENTRICITY":0.00077208,"INCLINATION":97.4463,"RA_OF_ASC_NODE":32.9842,"ARG_OF_PERICENTER":166.3624,"MEAN_ANOMALY":193.7826,"EPHEMERIS_TYPE":0,"CLASSIFICATION_TYPE":"U","NORAD_CAT_ID":64881,"ELEMENT_SET_NO":999,"REV_AT_EPOCH":6490,"BSTAR":0.00073333023,"MEAN_MOTION_DOT":0.00021097,"MEAN_MOTION_DDOT":0},{"OBJECT_NAME":"GEOSCAN 2 (RS92S2)","OBJECT_ID":"2025-155Q","EPOCH":"2026-03-05T05:54:53.972928","MEAN_MOTION":15.28549932,"ECCENTRICITY":0.00079345,"INCLINATION":97.4457,"RA_OF_ASC_NODE":32.8126,"ARG_OF_PERICENTER":155.0794,"MEAN_ANOMALY":205.083,"EPHEMERIS_TYPE":0,"CLASSIFICATION_TYPE":"U","NORAD_CAT_ID":64890,"ELEMENT_SET_NO":999,"REV_AT_EPOCH":6489,"BSTAR":0.00061050523,"MEAN_MOTION_DOT":0.00016918,"MEAN_MOTION_DDOT":0},{"OBJECT_NAME":"GEOSCAN 5 (RS92S5)","OBJECT_ID":"2025-155R","EPOCH":"2026-03-05T06:35:09.992544","MEAN_MOTION":15.30062078,"ECCENTRICITY":0.00064022,"INCLINATION":97.4456,"RA_OF_ASC_NODE":33.0916,"ARG_OF_PERICENTER":169.0774,"MEAN_ANOMALY":191.0607,"EPHEMERIS_TYPE":0,"CLASSIFICATION_TYPE":"U","NORAD_CAT_ID":64891,"ELEMENT_SET_NO":999,"REV_AT_EPOCH":6491,"BSTAR":0.00070563586,"MEAN_MOTION_DOT":0.00020499,"MEAN_MOTION_DDOT":0},{"OBJECT_NAME":"GEOSCAN 4 (RS92S4)","OBJECT_ID":"2025-155S","EPOCH":"2026-03-05T06:24:37.604160","MEAN_MOTION":15.30163961,"ECCENTRICITY":0.0006362,"INCLINATION":97.446,"RA_OF_ASC_NODE":33.1077,"ARG_OF_PERICENTER":169.579,"MEAN_ANOMALY":190.5584,"EPHEMERIS_TYPE":0,"CLASSIFICATION_TYPE":"U","NORAD_CAT_ID":64892,"ELEMENT_SET_NO":999,"REV_AT_EPOCH":6491,"BSTAR":0.00069586304,"MEAN_MOTION_DOT":0.00020277,"MEAN_MOTION_DDOT":0},{"OBJECT_NAME":"GEOSCAN 3 (RS92S3)","OBJECT_ID":"2025-155T","EPOCH":"2026-03-05T05:58:17.328288","MEAN_MOTION":15.31448317,"ECCENTRICITY":0.00060169,"INCLINATION":97.4452,"RA_OF_ASC_NODE":33.272,"ARG_OF_PERICENTER":168.6318,"MEAN_ANOMALY":191.506,"EPHEMERIS_TYPE":0,"CLASSIFICATION_TYPE":"U","NORAD_CAT_ID":64893,"ELEMENT_SET_NO":999,"REV_AT_EPOCH":6492,"BSTAR":0.00080312138,"MEAN_MOTION_DOT":0.00024376,"MEAN_MOTION_DDOT":0}]
