TEVEL2-6                
1 63215U 25052F   26064.20415867  .00023260  00000+0  78861-3 0  9997
2 63215  97.4030 320.6045 0004577 104.8265 255.3483 15.30538315 54183
TEVEL2-1                
1 63217U 25052H   26064.20118319  .00022837  00000+0  78428-3 0  9999
2 63217  97.4004 320.3383 0004518 114.3570 245.8142 15.30125086 54170
TEVEL2-3                
1 63218U 25052J   26064.19886452  .00022917  00000+0  78615-3 0  9995
2 63218  97.4007 320.3473 0004525 115.1213 245.0498 15.30159564 54179
TEVEL2-2                
1 63219U 25052K   26064.20184931  .00023076  00000+0  79235-3 0  9997
2 63219  97.4005 320.3399 0004459 115.0577 245.1127 15.30127355 54176
TEVEL2-9                
1 63237U 25052AD  26064.25071163  .00021481  00000+0  77676-3 0  9999
2 63237  97.4068 319.9660 0007759 137.9443 222.2394 15.28432136 54132
TEVEL2-7                
1 63238U 25052AE  26064.20891699  .00020421  00000+0  74353-3 0  9991
2 63238  97.4068 319.8781 0007776 137.8904 222.2934 15.28216758 54125
TEVEL2-8                
1 63239U 25052AF  26064.15039523  .00020279  00000+0  73896-3 0  9998
2 63239  97.4064 319.8004 0007686 138.4653 221.7172 15.28192035 54116
HADES-ICM               
1 63492U 25052BN  26064.19641911  .00150361  00000+0  21692-2 0  9995
2 63492  97.3959 324.4852 0008609 119.8940 240.3171 15.55423572 54445
INNOSAT 16 (RS92S7)     
1 64878U 25155C   26064.25222576  .00009844  00000+0  40745-3 0  9997
2 64878  97.4461  31.8804 0010443 180.6678 179.4548 15.24095453 64835
GEOSCAN 6 (RS92S6)      
1 64879U 25155D   26064.26170172  .00016473  00000+0  60755-3 0  9992
2 64879  97.4459  32.6483 0008073 168.6913 191.4509 15.27835862 64884
GEOSCAN 1 (RS92S1)      
1 64880U 25155E   26064.29870430  .00016734  00000+0  60942-3 0  9999
2 64880  97.4459  32.7561 0008030 168.4202 191.7224 15.28250855 64898
239ALFEROV (RS61S)      
1 64881U 25155F   26064.26329859  .00021097  00000+0  73333-3 0  9997
2 64881  97.4463  32.9842 0007720 166.3624 193.7826 15.29729287 64901
GEOSCAN 2 (RS92S2)      
1 64890U 25155Q   26064.24645802  .00016918  00000+0  61051-3 0  9994
2 64890  97.4457  32.8126 0007934 155.0794 205.0830 15.28549932 64894
GEOSCAN 5 (RS92S5)      
1 64891U 25155R   26064.27442121  .00020499  00000+0  70564-3 0  9995
2 64891  97.4456  33.0916 0006402 169.0774 191.0607 15.30062078 64919
GEOSCAN 4 (RS92S4)      
1 64892U 25155S   26064.26710190  .00020277  00000+0  69586-3 0  9995
2 64892  97.4460  33.1077 0006362 169.5790 190.5584 15.30163961 64913
GEOSCAN 3 (RS92S3)      
1 64893U 25155T   26064.24881167  .00024376  00000+0  80312-3 0  9991
2 64893  97.4452  33.2720 0006016 168.6318 191.5060 15.31448317 64926
